[
  {
    "OBJECT_NAME": "STARLINK-31120",
    "OBJECT_ID": "2024-011P",
    "EPOCH": "2024-02-04T06:00:02.000160",
    "MEAN_MOTION": 15.4897659,
    "ECCENTRICITY": 0.0001418,
    "INCLINATION": 53.1599,
    "RA_OF_ASC_NODE": 234.0842,
    "ARG_OF_PERICENTER": 123.4728,
    "MEAN_ANOMALY": 202.3854,
    "EPHEMERIS_TYPE": 0,
    "CLASSIFICATION_TYPE": "U",
    "NORAD_CAT_ID": 58778,
    "ELEMENT_SET_NO": 999,
    "REV_AT_EPOCH": 439,
    "BSTAR": -0.00034345,
    "MEAN_MOTION_DOT": -0.00019279,
    "MEAN_MOTION_DDOT": 0
  },
  {
    "OBJECT_NAME": "STARLINK-31142",
    "OBJECT_ID": "2024-011Q",
    "EPOCH": "2024-02-04T06:00:02.000160",
    "MEAN_MOTION": 15.48976728,
    "ECCENTRICITY": 0.0001446,
    "INCLINATION": 53.1599,
    "RA_OF_ASC_NODE": 234.0857,
    "ARG_OF_PERICENTER": 125.6382,
    "MEAN_ANOMALY": 199.3704,
    "EPHEMERIS_TYPE": 0,
    "CLASSIFICATION_TYPE": "U",
    "NORAD_CAT_ID": 58779,
    "ELEMENT_SET_NO": 999,
    "REV_AT_EPOCH": 450,
    "BSTAR": -0.00034823,
    "MEAN_MOTION_DOT": -0.00019541,
    "MEAN_MOTION_DDOT": 0
  },
  {
    "OBJECT_NAME": "STARLINK-31103",
    "OBJECT_ID": "2024-011R",
    "EPOCH": "2024-02-04T06:00:02.000160",
    "MEAN_MOTION": 15.48975502,
    "ECCENTRICITY": 0.0001605,
    "INCLINATION": 53.1599,
    "RA_OF_ASC_NODE": 234.0823,
    "ARG_OF_PERICENTER": 115.6696,
    "MEAN_ANOMALY": 211.0383,
    "EPHEMERIS_TYPE": 0,
    "CLASSIFICATION_TYPE": "U",
    "NORAD_CAT_ID": 58780,
    "ELEMENT_SET_NO": 999,
    "REV_AT_EPOCH": 439,
    "BSTAR": -0.00031085,
    "MEAN_MOTION_DOT": -0.00017495,
    "MEAN_MOTION_DDOT": 0
  },
  {
    "OBJECT_NAME": "STARLINK-31099",
    "OBJECT_ID": "2024-011S",
    "EPOCH": "2024-02-04T06:00:02.000160",
    "MEAN_MOTION": 15.48978211,
    "ECCENTRICITY": 0.0001562,
    "INCLINATION": 53.1598,
    "RA_OF_ASC_NODE": 234.079,
    "ARG_OF_PERICENTER": 120.2772,
    "MEAN_ANOMALY": 208.1294,
    "EPHEMERIS_TYPE": 0,
    "CLASSIFICATION_TYPE": "U",
    "NORAD_CAT_ID": 58781,
    "ELEMENT_SET_NO": 999,
    "REV_AT_EPOCH": 439,
    "BSTAR": -0.00048399,
    "MEAN_MOTION_DOT": -0.00026962,
    "MEAN_MOTION_DDOT": 0
  },
  {
    "OBJECT_NAME": "STARLINK-31060",
    "OBJECT_ID": "2024-011T",
    "EPOCH": "2024-02-04T06:00:02.000160",
    "MEAN_MOTION": 15.59674375,
    "ECCENTRICITY": 0.0001187,
    "INCLINATION": 53.1606,
    "RA_OF_ASC_NODE": 233.6528,
    "ARG_OF_PERICENTER": 81.7873,
    "MEAN_ANOMALY": 98.8616,
    "EPHEMERIS_TYPE": 0,
    "CLASSIFICATION_TYPE": "U",
    "NORAD_CAT_ID": 58782,
    "ELEMENT_SET_NO": 999,
    "REV_AT_EPOCH": 440,
    "BSTAR": -0.024345,
    "MEAN_MOTION_DOT": -0.01766081,
    "MEAN_MOTION_DDOT": 0
  },
  {
    "OBJECT_NAME": "STARLINK-31047",
    "OBJECT_ID": "2024-011U",
    "EPOCH": "2024-02-04T06:00:02.000160",
    "MEAN_MOTION": 15.5170407,
    "ECCENTRICITY": 0.000144,
    "INCLINATION": 53.1603,
    "RA_OF_ASC_NODE": 233.7653,
    "ARG_OF_PERICENTER": 80.7871,
    "MEAN_ANOMALY": 42.6751,
    "EPHEMERIS_TYPE": 0,
    "CLASSIFICATION_TYPE": "U",
    "NORAD_CAT_ID": 58783,
    "ELEMENT_SET_NO": 999,
    "REV_AT_EPOCH": 440,
    "BSTAR": -0.032608,
    "MEAN_MOTION_DOT": -0.01758224,
    "MEAN_MOTION_DDOT": 0
  },
  {
    "OBJECT_NAME": "STARLINK-31039",
    "OBJECT_ID": "2024-011V",
    "EPOCH": "2024-02-04T06:00:02.000160",
    "MEAN_MOTION": 15.48982652,
    "ECCENTRICITY": 0.0001293,
    "INCLINATION": 53.1598,
    "RA_OF_ASC_NODE": 234.0753,
    "ARG_OF_PERICENTER": 93.3219,
    "MEAN_ANOMALY": 236.7736,
    "EPHEMERIS_TYPE": 0,
    "CLASSIFICATION_TYPE": "U",
    "NORAD_CAT_ID": 58784,
    "ELEMENT_SET_NO": 999,
    "REV_AT_EPOCH": 439,
    "BSTAR": -0.00024605,
    "MEAN_MOTION_DOT": -0.0001395,
    "MEAN_MOTION_DDOT": 0
  },
  {
    "OBJECT_NAME": "STARLINK-31034",
    "OBJECT_ID": "2024-011W",
    "EPOCH": "2024-02-03T22:00:00.999936",
    "MEAN_MOTION": 15.61023482,
    "ECCENTRICITY": 8.82e-05,
    "INCLINATION": 53.1602,
    "RA_OF_ASC_NODE": 234.8293,
    "ARG_OF_PERICENTER": 80.5759,
    "MEAN_ANOMALY": 243.1527,
    "EPHEMERIS_TYPE": 0,
    "CLASSIFICATION_TYPE": "U",
    "NORAD_CAT_ID": 58785,
    "ELEMENT_SET_NO": 999,
    "REV_AT_EPOCH": 435,
    "BSTAR": -0.022521,
    "MEAN_MOTION_DOT": -0.01725824,
    "MEAN_MOTION_DDOT": 0
  },
  {
    "OBJECT_NAME": "STARLINK-31024",
    "OBJECT_ID": "2024-011X",
    "EPOCH": "2024-02-04T06:00:02.000160",
    "MEAN_MOTION": 15.48983338,
    "ECCENTRICITY": 0.0001163,
    "INCLINATION": 53.1597,
    "RA_OF_ASC_NODE": 234.0712,
    "ARG_OF_PERICENTER": 87.2156,
    "MEAN_ANOMALY": 244.5781,
    "EPHEMERIS_TYPE": 0,
    "CLASSIFICATION_TYPE": "U",
    "NORAD_CAT_ID": 58786,
    "ELEMENT_SET_NO": 999,
    "REV_AT_EPOCH": 439,
    "BSTAR": -0.00024553,
    "MEAN_MOTION_DOT": -0.00013922,
    "MEAN_MOTION_DDOT": 0
  },
  {
    "OBJECT_NAME": "STARLINK-31189",
    "OBJECT_ID": "2024-012A",
    "EPOCH": "2024-02-03T22:00:00.999936",
    "MEAN_MOTION": 15.60305569,
    "ECCENTRICITY": 0.0001115,
    "INCLINATION": 42.9997,
    "RA_OF_ASC_NODE": 157.8826,
    "ARG_OF_PERICENTER": 275.1236,
    "MEAN_ANOMALY": 262.3257,
    "EPHEMERIS_TYPE": 0,
    "CLASSIFICATION_TYPE": "U",
    "NORAD_CAT_ID": 58787,
    "ELEMENT_SET_NO": 999,
    "REV_AT_EPOCH": 423,
    "BSTAR": -0.023151,
    "MEAN_MOTION_DOT": -0.017392,
    "MEAN_MOTION_DDOT": 0
  },
  {
    "OBJECT_NAME": "STARLINK-31185",
    "OBJECT_ID": "2024-012B",
    "EPOCH": "2024-02-03T22:00:00.999936",
    "MEAN_MOTION": 15.60303886,
    "ECCENTRICITY": 0.0001309,
    "INCLINATION": 43,
    "RA_OF_ASC_NODE": 157.8808,
    "ARG_OF_PERICENTER": 279.7921,
    "MEAN_ANOMALY": 258.5175,
    "EPHEMERIS_TYPE": 0,
    "CLASSIFICATION_TYPE": "U",
    "NORAD_CAT_ID": 58788,
    "ELEMENT_SET_NO": 999,
    "REV_AT_EPOCH": 438,
    "BSTAR": -0.023157,
    "MEAN_MOTION_DOT": -0.01739608,
    "MEAN_MOTION_DDOT": 0
  },
  {
    "OBJECT_NAME": "STARLINK-31166",
    "OBJECT_ID": "2024-012C",
    "EPOCH": "2024-02-03T22:00:00.999936",
    "MEAN_MOTION": 15.60303919,
    "ECCENTRICITY": 0.0001262,
    "INCLINATION": 42.9997,
    "RA_OF_ASC_NODE": 157.8783,
    "ARG_OF_PERICENTER": 278.0321,
    "MEAN_ANOMALY": 261.1372,
    "EPHEMERIS_TYPE": 0,
    "CLASSIFICATION_TYPE": "U",
    "NORAD_CAT_ID": 58789,
    "ELEMENT_SET_NO": 999,
    "REV_AT_EPOCH": 424,
    "BSTAR": -0.023202,
    "MEAN_MOTION_DOT": -0.01742607,
    "MEAN_MOTION_DDOT": 0
  },
  {
    "OBJECT_NAME": "STARLINK-31187",
    "OBJECT_ID": "2024-012D",
    "EPOCH": "2024-02-03T22:00:00.999936",
    "MEAN_MOTION": 15.6029989,
    "ECCENTRICITY": 0.0001112,
    "INCLINATION": 42.9998,
    "RA_OF_ASC_NODE": 157.8764,
    "ARG_OF_PERICENTER": 277.4492,
    "MEAN_ANOMALY": 262.5806,
    "EPHEMERIS_TYPE": 0,
    "CLASSIFICATION_TYPE": "U",
    "NORAD_CAT_ID": 58790,
    "ELEMENT_SET_NO": 999,
    "REV_AT_EPOCH": 438,
    "BSTAR": -0.023138,
    "MEAN_MOTION_DOT": -0.01737982,
    "MEAN_MOTION_DDOT": 0
  },
  {
    "OBJECT_NAME": "STARLINK-31162",
    "OBJECT_ID": "2024-012E",
    "EPOCH": "2024-02-03T22:00:00.999936",
    "MEAN_MOTION": 15.56921583,
    "ECCENTRICITY": 0.0001242,
    "INCLINATION": 42.9997,
    "RA_OF_ASC_NODE": 157.8396,
    "ARG_OF_PERICENTER": 276.9793,
    "MEAN_ANOMALY": 277.0858,
    "EPHEMERIS_TYPE": 0,
    "CLASSIFICATION_TYPE": "U",
    "NORAD_CAT_ID": 58791,
    "ELEMENT_SET_NO": 999,
    "REV_AT_EPOCH": 439,
    "BSTAR": -0.026333,
    "MEAN_MOTION_DOT": -0.01738317,
    "MEAN_MOTION_DDOT": 0
  }
]