STARLINK-31120          
1 58778U 24011P   24035.25002315 -.00019279  00000+0 -34345-3 0  9996
2 58778  53.1599 234.0842 0001418 123.4728 202.3854 15.48976590  4397
STARLINK-31142          
1 58779U 24011Q   24035.25002315 -.00019541  00000+0 -34823-3 0  9990
2 58779  53.1599 234.0857 0001446 125.6382 199.3704 15.48976728  4500
STARLINK-31103          
1 58780U 24011R   24035.25002315 -.00017495  00000+0 -31085-3 0  9995
2 58780  53.1599 234.0823 0001605 115.6696 211.0383 15.48975502  4390
STARLINK-31099          
1 58781U 24011S   24035.25002315 -.00026962  00000+0 -48399-3 0  9991
2 58781  53.1598 234.0790 0001562 120.2772 208.1294 15.48978211  4390
STARLINK-31060          
1 58782U 24011T   24035.25002315 -.01766081  00000+0 -24345-1 0  9999
2 58782  53.1606 233.6528 0001187  81.7873  98.8616 15.59674375  4401
STARLINK-31047          
1 58783U 24011U   24035.25002315 -.01758224  00000+0 -32608-1 0  9991
2 58783  53.1603 233.7653 0001440  80.7871  42.6751 15.51704070  4403
STARLINK-31039          
1 58784U 24011V   24035.25002315 -.00013950  00000+0 -24605-3 0  9991
2 58784  53.1598 234.0753 0001293  93.3219 236.7736 15.48982652  4391
STARLINK-31034          
1 58785U 24011W   24034.91667824 -.01725824  00000+0 -22521-1 0  9990
2 58785  53.1602 234.8293 0000882  80.5759 243.1527 15.61023482  4353
STARLINK-31024          
1 58786U 24011X   24035.25002315 -.00013922  00000+0 -24553-3 0  9994
2 58786  53.1597 234.0712 0001163  87.2156 244.5781 15.48983338  4394
STARLINK-31189          
1 58787U 24012A   24034.91667824 -.01739200  00000+0 -23151-1 0  9996
2 58787  42.9997 157.8826 0001115 275.1236 262.3257 15.60305569  4234
STARLINK-31185          
1 58788U 24012B   24034.91667824 -.01739608  00000+0 -23157-1 0  9995
2 58788  43.0000 157.8808 0001309 279.7921 258.5175 15.60303886  4380
STARLINK-31166          
1 58789U 24012C   24034.91667824 -.01742607  00000+0 -23202-1 0  9990
2 58789  42.9997 157.8783 0001262 278.0321 261.1372 15.60303919  4241
STARLINK-31187          
1 58790U 24012D   24034.91667824 -.01737982  00000+0 -23138-1 0  9990
2 58790  42.9998 157.8764 0001112 277.4492 262.5806 15.60299890  4383
STARLINK-31162          
1 58791U 24012E   24034.91667824 -.01738317  00000+0 -26333-1 0  9994
2 58791  42.9997 157.8396 0001242 276.9793 277.0858 15.56921583  4391
